IRIDIUM 136             
1 42962U 17061H   24166.54456843  .00000084  00000+0  22853-4 0  9991
2 42962  86.3966 331.4255 0001795  89.5823 270.5578 14.34216926349821
